[{"OBJECT_NAME":"STARLINK-30295","OBJECT_ID":"2023-124W","EPOCH":"2026-03-09T16:33:04.419936","MEAN_MOTION":15.30187499,"ECCENTRICITY":0.00010099,"INCLINATION":53.1601,"RA_OF_ASC_NODE":207.0693,"ARG_OF_PERICENTER":107.1458,"MEAN_ANOMALY":252.9653,"EPHEMERIS_TYPE":0,"CLASSIFICATION_TYPE":"U","NORAD_CAT_ID":57683,"ELEMENT_SET_NO":999,"REV_AT_EPOCH":14356,"BSTAR":-2.568348e-6,"MEAN_MOTION_DOT":-4.35e-6,"MEAN_MOTION_DDOT":0},{"OBJECT_NAME":"OBJECT M","OBJECT_ID":"2025-155M","EPOCH":"2026-03-09T22:37:12.666144","MEAN_MOTION":15.33288683,"ECCENTRICITY":0.00088001,"INCLINATION":97.4429,"RA_OF_ASC_NODE":38.1052,"ARG_OF_PERICENTER":139.1253,"MEAN_ANOMALY":221.0651,"EPHEMERIS_TYPE":0,"CLASSIFICATION_TYPE":"U","NORAD_CAT_ID":64887,"ELEMENT_SET_NO":999,"REV_AT_EPOCH":6565,"BSTAR":0.00087834095,"MEAN_MOTION_DOT":0.00028279,"MEAN_MOTION_DDOT":0}]
